# From MPEC 2025-A40
457P/Lemmon-PANSTARRS,e,5.2257,175.9635,104.3291,2.645244,0.2290896,0.11841393,52.2064,04/05.0/2025,2000,g 15.5,4.0
# From MPEC 2023-HD1
458P/Jahn,e,13.6226,1.5660,104.9185,3.859073,0.1300108,0.31725955,115.3560,04/05.0/2025,2000,g 17.3,4.0
# From MPEC 2024-N80
459P/Catalina,e,7.1738,256.9878,205.2212,3.240358,0.1689720,0.57785367,130.6771,04/05.0/2025,2000,g 15.5,4.0
# From MPEC 2023-G14
460P/PANSTARRS,e,18.8998,180.5166,351.9367,3.027167,0.1871326,0.66419138,259.9452,04/05.0/2025,2000,g 21.0,4.0
# From MPEC 2024-GJ3
461P/WISE,e,18.4006,194.3783,174.8333,3.144232,0.1767796,0.56963889,226.0010,04/05.0/2025,2000,g 18.5,4.0
# From MPEC 2024-BE0
462P/LONEOS-PANSTARRS,e,7.0413,322.6861,4.2554,4.865325,0.0918409,0.57832857,89.7917,04/05.0/2025,2000,g 17.0,4.0
# From MPEC 2024-GJ3
463P/NEOWISE,e,29.2960,283.2180,216.3403,2.974166,0.1921570,0.82585358,141.6574,04/05.0/2025,2000,g 18.0,4.0
# From MPEC 2024-Q20
464P/PANSTARRS,e,21.6730,309.5778,267.5410,4.684255,0.0972172,0.28053337,74.6288,04/05.0/2025,2000,g 10.5,4.0
# From MPEC 2024-NE4
465P/Hill,e,25.8623,217.9686,141.0004,6.011064,0.0668770,0.61324136,46.6087,04/05.0/2025,2000,g 12.5,4.0
# From MPEC 2024-JU4
466P/PANSTARRS,e,12.5378,118.6709,197.7057,4.052091,0.1208329,0.47387657,84.3997,04/05.0/2025,2000,g 14.0,4.0
# From MPEC 2025-A40
467P/LINEAR-Grauer,e,2.4792,43.2637,267.5660,5.826950,0.0700716,0.05460826,60.2071,04/05.0/2025,2000,g  9.0,4.0
# From MPEC 2024-O39
468P/SidingSpring,e,50.4510,356.1252,322.5816,7.118739,0.0518919,0.44507881,25.9895,04/05.0/2025,2000,g 11.5,4.0
# From MPEC 2025-A40
469P/PANSTARRS,e,20.1726,178.9674,43.4942,4.342169,0.1089291,0.30794067,333.0494,04/05.0/2025,2000,g 13.5,4.0
# From MPC182892
470P/PANSTARRS,e,8.8443,246.1725,151.7222,4.465267,0.1044559,0.38947276,49.6275,04/05.0/2025,2000,g 15.5,4.0
# From MPC182892
471P/,e,4.7966,283.3102,94.8242,5.697107,0.0724807,0.62779306,34.2171,04/05.0/2025,2000,g 12.0,4.0
# From MPC182892
472P/NEAT-LINEAR,e,10.8239,205.8753,218.8618,7.790881,0.0453236,0.56512360,11.9914,04/05.0/2025,2000,g 10.5,4.0
# From MPEC 2024-MB8
473P/NEAT,e,56.9003,22.1890,42.9337,7.972194,0.0437862,0.82360763,17.6789,04/05.0/2025,2000,g 13.5,4.0
# From MPEC 2024-B74
474P/Hogan,e,1.0970,26.7484,11.2653,3.130449,0.1779484,0.18810886,111.9791,04/05.0/2025,2000,g 15.5,4.0
# From MPEC 2024-O39
475P/Spacewatch-LINEAR,e,14.5237,147.3630,40.4021,7.316353,0.0498038,0.44269968,15.3089,04/05.0/2025,2000,g 11.0,4.0
# From MPC182892
476P/PANSTARRS,e,19.0053,57.0518,46.7337,4.776205,0.0944234,0.34605263,16.0989,04/05.0/2025,2000,g 12.5,4.0
# From MPEC 2024-GJ3
477P/PANSTARRS,e,8.9139,59.1496,305.8948,3.002491,0.1894443,0.41749059,88.1755,04/05.0/2025,2000,g 14.5,4.0
# From MPEC 2024-L77
478P/ATLAS,e,12.5245,127.2647,13.2304,3.647600,0.1414794,0.34371784,47.8021,04/05.0/2025,2000,g 13.5,4.0
# From MPEC 2024-PC5
479P/Elenin,e,15.3996,295.8322,263.5103,5.623103,0.0739163,0.77888478,24.7434,04/05.0/2025,2000,g 15.0,4.0
# From MPC182893
480P/PANSTARRS,e,13.7170,229.9804,214.3924,4.610338,0.0995646,0.24635843,70.9243,04/05.0/2025,2000,g 12.0,4.0
# From MPEC 2025-A40
481P/Lemmon-PANSTARRS,e,6.0826,93.5502,356.7831,4.681132,0.0973145,0.34348987,61.8688,04/05.0/2025,2000,g 13.5,4.0
# From MPEC 2024-JU4
482P/PANSTARRS,e,24.4863,126.0803,339.7144,3.756609,0.1353662,0.49237350,91.0823,04/05.0/2025,2000,g 13.5,4.0
# From MPEC 2024-R10
483P-A/PANSTARRS,e,14.2054,199.4217,48.9257,3.194005,0.1726636,0.22288950,196.2477,04/05.0/2025,2000,g 13.5,4.0
# From MPEC 2024-R10
483P-B/PANSTARRS,e,14.2062,199.4211,48.9158,3.193933,0.1726694,0.22282992,196.2830,04/05.0/2025,2000,g 17.0,4.0
# From MPEC 2024-DD5
484P/Spacewatch,e,14.4746,265.3869,240.7867,3.757179,0.1353353,0.43286052,215.1001,04/05.0/2025,2000,g 16.0,4.0
# From MPEC 2024-JU4
485P/Sheppard-Tholen,e,10.0161,261.6446,196.0841,6.850283,0.0549720,0.41718991,32.3709,04/05.0/2025,2000,g 13.0,4.0
# From MPEC 2024-R10
486P/Leonard,e,2.2095,219.0249,93.9457,3.628066,0.1426236,0.36359002,0.1650,04/05.0/2025,2000,g 14.5,4.0
# From MPC182893
487P/SidingSpring,e,39.3664,49.2066,0.8510,5.163910,0.0839916,0.64855159,13.9748,04/05.0/2025,2000,g 13.5,4.0
# From MPEC 2024-UA9
488P/NEAT-PANSTARRS,e,11.3660,324.0188,1.5783,3.736959,0.1364353,0.55084110,43.7516,04/05.0/2025,2000,g 16.5,4.0
# From MPEC 2024-Q14
489P/Denning,e,4.0267,20.6113,109.4384,4.423028,0.1059558,0.64707003,334.2153,04/05.0/2025,2000,g 15.5,4.0
# From MPEC 2024-YC7
490P/ATLAS,e,12.2663,307.6057,332.5273,3.029630,0.1869044,0.64721233,35.2906,04/05.0/2025,2000,g 21.0,4.0
# From MPEC 2024-UQ8
491P/Spacewatch-PANSTARRS,e,9.3660,311.6854,298.8925,5.013468,0.0878004,0.25868740,18.5184,04/05.0/2025,2000,g  9.5,4.0
# From MPC182893
492P/LINEAR,e,11.4007,11.3072,40.9888,5.761448,0.0712700,0.69069691,18.4255,04/05.0/2025,2000,g 15.0,4.0
# From MPC182893
493P/LONEOS,e,24.1138,1.1113,83.1965,7.163602,0.0514052,0.46628814,345.3939,04/05.0/2025,2000,g 12.0,2.0
# From MPEC 2024-RQ6
494P/PANSTARRS,e,7.7899,245.0435,48.8742,3.794519,0.1333426,0.35687354,41.2035,04/05.0/2025,2000,g 16.0,4.0
# From MPEC 2025-A40
495P/Christensen,e,26.3542,291.6208,141.3430,4.754397,0.0950738,0.27226935,340.9426,04/05.0/2025,2000,g 11.5,4.0
# From MPC182893
496P/Hill,e,14.8145,63.5872,42.2466,6.101325,0.0653985,0.73431215,1.6820,04/05.0/2025,2000,g 14.0,4.0
# From MPEC 2025-A40
497P/Spacewatch-PANSTARRS,e,10.4373,40.3807,32.4126,5.617199,0.0740328,0.63056404,3.6012,04/05.0/2025,2000,g 17.5,4.0
# From MPC182893
498P/LINEAR,e,14.4828,279.2307,179.0829,4.593737,0.1001048,0.57238778,10.7191,04/05.0/2025,2000,g 14.7,4.0
# From MPC182893
499P/Catalina,e,24.5826,139.3098,2.5535,3.017515,0.1880312,0.69145638,5.9433,04/05.0/2025,2000,g 18.5,4.0
# From MPC107687
1I/`Oumuamua,h,09/09.4886/2017,122.6778,24.5997,241.6845,1.199252,0.255240,2000,23.0,2.0
# From MPEC 2023-L37
2I/Borisov,h,12/08.5548/2019,44.0527,308.1480,209.1251,3.356633,2.006548,2000,11.0,4.0
